ORBCOMM FM103           
1 40091U 14040F   25082.18979264  .00003152  00000+0  71646-3 0  9993
2 40091  47.0047  63.8832 0002632 262.3533  97.7054 14.57954902551554
ORBCOMM FM114           
1 41179U 15081A   25082.14565295  .00003030  00000+0  68921-3 0  9995
2 41179  47.0034 333.1936 0002470 311.0413  49.0259 14.58015495491911
ORBCOMM FM119           
1 41180U 15081B   25082.54056849  .00003090  00000+0  70325-3 0  9998
2 41180  46.9988 240.6089 0000750 342.8872  17.1988 14.57935716493227
ORBCOMM FM105           
1 41181U 15081C   25082.56235176  .00001439  00000+0  45232-3 0  9997
2 41181  47.0012 237.1597 0002098 284.3729  75.6919 14.45110506488362
ORBCOMM FM110           
1 41182U 15081D   25082.12138010  .00004391  00000+0  98179-3 0  9997
2 41182  47.0026 332.6761 0001639 108.5936 251.5127 14.58031269491787
ORBCOMM FM118           
1 41183U 15081E   25082.17491534  .00004415  00000+0  98851-3 0  9990
2 41183  47.0050 332.8792 0002022 101.5283 258.5829 14.57959271491895
ORBCOMM FM112           
1 41184U 15081F   25082.58522978  .00003464  00000+0  78342-3 0  9999
2 41184  46.9972 239.5582 0001024 303.1898  56.8890 14.57968682493176
ORBCOMM FM113           
1 41185U 15081G   25082.56237278  .00003692  00000+0  83335-3 0  9995
2 41185  46.9989 239.9814 0001018 315.9506  44.1298 14.57927596493156
